<kml xmlns="http://www.opengis.net/kml/2.2" xmlns:atom="http://www.w3.org/2005/Atom" xmlns:gx="http://www.google.com/kml/ext/2.2">
  <Document>
    <Style id="QueryArea">
      <LineStyle>
        <color>ffc0c000</color>
        <width>3</width>
      </LineStyle>
      <PolyStyle>
        <color>80ffffaa</color>
      </PolyStyle>
    </Style>
    <Style id="F3548v21Accepted">
      <LineStyle>
        <color>ff00c000</color>
        <width>3</width>
      </LineStyle>
      <PolyStyle>
        <color>80c0c0c0</color>
      </PolyStyle>
    </Style>
    <Style id="F3548v21Activated">
      <LineStyle>
        <color>ff00c000</color>
        <width>3</width>
      </LineStyle>
      <PolyStyle>
        <color>8000ff00</color>
      </PolyStyle>
    </Style>
    <Style id="F3548v21Nonconforming">
      <LineStyle>
        <color>ff00ffff</color>
        <width>5</width>
      </LineStyle>
      <PolyStyle>
        <color>8000ffff</color>
      </PolyStyle>
    </Style>
    <Style id="F3548v21Contingent">
      <LineStyle>
        <color>ff0000ff</color>
        <width>5</width>
      </LineStyle>
      <PolyStyle>
        <color>80ff0000ff</color>
      </PolyStyle>
    </Style>
    <Style id="F3548v21AcceptedFuture">
      <LineStyle>
        <color>80c0c0c0</color>
        <width>1</width>
      </LineStyle>
      <PolyStyle>
        <color>00000000</color>
      </PolyStyle>
    </Style>
    <Style id="F3548v21ActivatedFuture">
      <LineStyle>
        <color>8040c040</color>
        <width>1</width>
      </LineStyle>
      <PolyStyle>
        <color>00000000</color>
      </PolyStyle>
    </Style>
    <Style id="F3548v21NonconformingFuture">
      <LineStyle>
        <color>8000ffff</color>
        <width>1</width>
      </LineStyle>
      <PolyStyle>
        <color>00000000</color>
      </PolyStyle>
    </Style>
    <Style id="F3548v21ContingentFuture">
      <LineStyle>
        <color>80ff0000ff</color>
        <width>1</width>
      </LineStyle>
      <PolyStyle>
        <color>00000000</color>
      </PolyStyle>
    </Style>
    <Style id="Planned_Nominal">
      <LineStyle>
        <color>ff00c000</color>
        <width>3</width>
      </LineStyle>
      <PolyStyle>
        <color>80808080</color>
      </PolyStyle>
    </Style>
    <Style id="InUse_Nominal">
      <LineStyle>
        <color>ff00c000</color>
        <width>3</width>
      </LineStyle>
      <PolyStyle>
        <color>8000ff00</color>
      </PolyStyle>
    </Style>
    <Style id="InUse_OffNominal">
      <LineStyle>
        <color>ff00ffff</color>
        <width>5</width>
      </LineStyle>
      <PolyStyle>
        <color>8000ff00</color>
      </PolyStyle>
    </Style>
    <Style id="InUse_Contingent">
      <LineStyle>
        <color>ff0000ff</color>
        <width>5</width>
      </LineStyle>
      <PolyStyle>
        <color>8000ff00</color>
      </PolyStyle>
    </Style>
    <Style id="unmodifiedtelemetry">
      <IconStyle>
        <scale>1.4</scale>
        <Icon>
          <href>http://maps.google.com/mapfiles/kml/shapes/placemark_circle.png</href>
        </Icon>
      </IconStyle>
    </Style>
    <Style id="modifiedtelemetry">
      <IconStyle>
        <scale>1.4</scale>
        <Icon>
          <href>http://maps.google.com/mapfiles/kml/shapes/placemark_square.png</href>
        </Icon>
      </IconStyle>
    </Style>
    <Style id="aircraft">
      <IconStyle>
        <scale>1.4</scale>
        <Icon>
          <href>http://maps.google.com/mapfiles/kml/shapes/airports.png</href>
        </Icon>
      </IconStyle>
    </Style>
    <Folder>
      <name>Awareness of relevant operational intents</name>
      <Folder>
        <name>Activated operational intent receives notification of relevant intent</name>
        <Folder>
          <name>Tested_uss plans and activates Flight 1</name>
          <Folder>
            <name>E3: uss1 astm.f3548.v21.dss.queryOperationalIntentReferences</name>
            <Placemark>
              <name>area_of_interest</name>
              <styleUrl>#QueryArea</styleUrl>
              <description><![CDATA[(no operational intent references found)]]></description>
              <TimeSpan>
                <begin>2026-08-14T04:41:44.156192+00:00</begin>
                <end>2026-08-14T05:26:44.156192+00:00</end>
              </TimeSpan>
              <MultiGeometry>
                <Polygon>
                  <altitudeMode>absolute</altitudeMode>
                  <outerBoundaryIs>
                    <LinearRing>
                      <coordinates>7.463533166836405,46.970343943675864,547.3205119121076 7.463533166836405,46.98426197818138,547.3205119121076 7.4831733330421475,46.98426197818138,547.3205119121076 7.4831733330421475,46.970343943675864,547.3205119121076</coordinates>
                    </LinearRing>
                  </outerBoundaryIs>
                </Polygon>
                <Polygon>
                  <altitudeMode>absolute</altitudeMode>
                  <outerBoundaryIs>
                    <LinearRing>
                      <coordinates>7.463533166836405,46.970343943675864,632.3205119121076 7.463533166836405,46.98426197818138,632.3205119121076 7.4831733330421475,46.98426197818138,632.3205119121076 7.4831733330421475,46.970343943675864,632.3205119121076</coordinates>
                    </LinearRing>
                  </outerBoundaryIs>
                </Polygon>
                <Polygon>
                  <altitudeMode>absolute</altitudeMode>
                  <outerBoundaryIs>
                    <LinearRing>
                      <coordinates>7.463533166836405,46.970343943675864,547.3205119121076 7.463533166836405,46.970343943675864,632.3205119121076 7.463533166836405,46.98426197818138,632.3205119121076 7.463533166836405,46.98426197818138,547.3205119121076</coordinates>
                    </LinearRing>
                  </outerBoundaryIs>
                </Polygon>
                <Polygon>
                  <altitudeMode>absolute</altitudeMode>
                  <outerBoundaryIs>
                    <LinearRing>
                      <coordinates>7.463533166836405,46.98426197818138,547.3205119121076 7.463533166836405,46.98426197818138,632.3205119121076 7.4831733330421475,46.98426197818138,632.3205119121076 7.4831733330421475,46.98426197818138,547.3205119121076</coordinates>
                    </LinearRing>
                  </outerBoundaryIs>
                </Polygon>
                <Polygon>
                  <altitudeMode>absolute</altitudeMode>
                  <outerBoundaryIs>
                    <LinearRing>
                      <coordinates>7.4831733330421475,46.98426197818138,547.3205119121076 7.4831733330421475,46.98426197818138,632.3205119121076 7.4831733330421475,46.970343943675864,632.3205119121076 7.4831733330421475,46.970343943675864,547.3205119121076</coordinates>
                    </LinearRing>
                  </outerBoundaryIs>
                </Polygon>
                <Polygon>
                  <altitudeMode>absolute</altitudeMode>
                  <outerBoundaryIs>
                    <LinearRing>
                      <coordinates>7.4831733330421475,46.970343943675864,547.3205119121076 7.4831733330421475,46.970343943675864,632.3205119121076 7.463533166836405,46.970343943675864,632.3205119121076 7.463533166836405,46.970343943675864,547.3205119121076</coordinates>
                    </LinearRing>
                  </outerBoundaryIs>
                </Polygon>
              </MultiGeometry>
            </Placemark>
          </Folder>
          <Folder>
            <name>E9: uss1 astm.f3548.v21.dss.queryOperationalIntentReferences</name>
            <Placemark>
              <name>area_of_interest</name>
              <styleUrl>#QueryArea</styleUrl>
              <description><![CDATA[<ul><li>uss2's Accepted ab41d5c5-b701-437c-938d-1665feb16940[1]</li></ul>]]></description>
              <TimeSpan>
                <begin>2026-08-14T04:41:44.156192+00:00</begin>
                <end>2026-08-14T05:26:44.156192+00:00</end>
              </TimeSpan>
              <MultiGeometry>
                <Polygon>
                  <altitudeMode>absolute</altitudeMode>
                  <outerBoundaryIs>
                    <LinearRing>
                      <coordinates>7.463533166836405,46.970343943675864,547.3205119121076 7.463533166836405,46.98426197818138,547.3205119121076 7.4831733330421475,46.98426197818138,547.3205119121076 7.4831733330421475,46.970343943675864,547.3205119121076</coordinates>
                    </LinearRing>
                  </outerBoundaryIs>
                </Polygon>
                <Polygon>
                  <altitudeMode>absolute</altitudeMode>
                  <outerBoundaryIs>
                    <LinearRing>
                      <coordinates>7.463533166836405,46.970343943675864,632.3205119121076 7.463533166836405,46.98426197818138,632.3205119121076 7.4831733330421475,46.98426197818138,632.3205119121076 7.4831733330421475,46.970343943675864,632.3205119121076</coordinates>
                    </LinearRing>
                  </outerBoundaryIs>
                </Polygon>
                <Polygon>
                  <altitudeMode>absolute</altitudeMode>
                  <outerBoundaryIs>
                    <LinearRing>
                      <coordinates>7.463533166836405,46.970343943675864,547.3205119121076 7.463533166836405,46.970343943675864,632.3205119121076 7.463533166836405,46.98426197818138,632.3205119121076 7.463533166836405,46.98426197818138,547.3205119121076</coordinates>
                    </LinearRing>
                  </outerBoundaryIs>
                </Polygon>
                <Polygon>
                  <altitudeMode>absolute</altitudeMode>
                  <outerBoundaryIs>
                    <LinearRing>
                      <coordinates>7.463533166836405,46.98426197818138,547.3205119121076 7.463533166836405,46.98426197818138,632.3205119121076 7.4831733330421475,46.98426197818138,632.3205119121076 7.4831733330421475,46.98426197818138,547.3205119121076</coordinates>
                    </LinearRing>
                  </outerBoundaryIs>
                </Polygon>
                <Polygon>
                  <altitudeMode>absolute</altitudeMode>
                  <outerBoundaryIs>
                    <LinearRing>
                      <coordinates>7.4831733330421475,46.98426197818138,547.3205119121076 7.4831733330421475,46.98426197818138,632.3205119121076 7.4831733330421475,46.970343943675864,632.3205119121076 7.4831733330421475,46.970343943675864,547.3205119121076</coordinates>
                    </LinearRing>
                  </outerBoundaryIs>
                </Polygon>
                <Polygon>
                  <altitudeMode>absolute</altitudeMode>
                  <outerBoundaryIs>
                    <LinearRing>
                      <coordinates>7.4831733330421475,46.970343943675864,547.3205119121076 7.4831733330421475,46.970343943675864,632.3205119121076 7.463533166836405,46.970343943675864,632.3205119121076 7.463533166836405,46.970343943675864,547.3205119121076</coordinates>
                    </LinearRing>
                  </outerBoundaryIs>
                </Polygon>
              </MultiGeometry>
            </Placemark>
          </Folder>
          <Folder>
            <name>E13: uss2 astm.f3548.v21.uss.getOperationalIntentDetails</name>
            <Folder>
              <name>uss2's P0 Accepted ab41d5c5-b701-437c-938d-1665feb16940[1] @ 8BgbkqpCMR6amZRa73RVj6U6xxtRwtZirqSE72-AUD8_</name>
              <Placemark>
                <name>Nominal volume 0</name>
                <styleUrl>#F3548v21Accepted</styleUrl>
                <TimeSpan>
                  <begin>2026-08-14T04:41:45.191337+00:00</begin>
                  <end>2026-08-14T05:26:44.156192+00:00</end>
                </TimeSpan>
                <MultiGeometry>
                  <Polygon>
                    <altitudeMode>absolute</altitudeMode>
                    <outerBoundaryIs>
                      <LinearRing>
                        <coordinates>7.478052924481844,46.974680496312935,547.3250717159872 7.466430182503708,46.98231255980812,547.3250717159872 7.473507572386495,46.98426197818138,547.3250717159872 7.47725831308041,46.982934603517684,547.3250717159872</coordinates>
                      </LinearRing>
                    </outerBoundaryIs>
                  </Polygon>
                  <Polygon>
                    <altitudeMode>absolute</altitudeMode>
                    <outerBoundaryIs>
                      <LinearRing>
                        <coordinates>7.478052924481844,46.974680496312935,632.3250717159872 7.466430182503708,46.98231255980812,632.3250717159872 7.473507572386495,46.98426197818138,632.3250717159872 7.47725831308041,46.982934603517684,632.3250717159872</coordinates>
                      </LinearRing>
                    </outerBoundaryIs>
                  </Polygon>
                  <Polygon>
                    <altitudeMode>absolute</altitudeMode>
                    <outerBoundaryIs>
                      <LinearRing>
                        <coordinates>7.478052924481844,46.974680496312935,547.3250717159872 7.478052924481844,46.974680496312935,632.3250717159872 7.466430182503708,46.98231255980812,632.3250717159872 7.466430182503708,46.98231255980812,547.3250717159872</coordinates>
                      </LinearRing>
                    </outerBoundaryIs>
                  </Polygon>
                  <Polygon>
                    <altitudeMode>absolute</altitudeMode>
                    <outerBoundaryIs>
                      <LinearRing>
                        <coordinates>7.466430182503708,46.98231255980812,547.3250717159872 7.466430182503708,46.98231255980812,632.3250717159872 7.473507572386495,46.98426197818138,632.3250717159872 7.473507572386495,46.98426197818138,547.3250717159872</coordinates>
                      </LinearRing>
                    </outerBoundaryIs>
                  </Polygon>
                  <Polygon>
                    <altitudeMode>absolute</altitudeMode>
                    <outerBoundaryIs>
                      <LinearRing>
                        <coordinates>7.473507572386495,46.98426197818138,547.3250717159872 7.473507572386495,46.98426197818138,632.3250717159872 7.47725831308041,46.982934603517684,632.3250717159872 7.47725831308041,46.982934603517684,547.3250717159872</coordinates>
                      </LinearRing>
                    </outerBoundaryIs>
                  </Polygon>
                  <Polygon>
                    <altitudeMode>absolute</altitudeMode>
                    <outerBoundaryIs>
                      <LinearRing>
                        <coordinates>7.47725831308041,46.982934603517684,547.3250717159872 7.47725831308041,46.982934603517684,632.3250717159872 7.478052924481844,46.974680496312935,632.3250717159872 7.478052924481844,46.974680496312935,547.3250717159872</coordinates>
                      </LinearRing>
                    </outerBoundaryIs>
                  </Polygon>
                </MultiGeometry>
              </Placemark>
            </Folder>
          </Folder>
          <Folder>
            <name>E22: uss1 astm.f3548.v21.dss.queryOperationalIntentReferences</name>
            <Placemark>
              <name>area_of_interest</name>
              <styleUrl>#QueryArea</styleUrl>
              <description><![CDATA[<ul><li>uss2's Accepted ab41d5c5-b701-437c-938d-1665feb16940[1]</li></ul>]]></description>
              <TimeSpan>
                <begin>2026-08-14T04:41:44.156192+00:00</begin>
                <end>2026-08-14T05:26:44.156192+00:00</end>
              </TimeSpan>
              <MultiGeometry>
                <Polygon>
                  <altitudeMode>absolute</altitudeMode>
                  <outerBoundaryIs>
                    <LinearRing>
                      <coordinates>7.463533166836405,46.970343943675864,547.3205119121076 7.463533166836405,46.98426197818138,547.3205119121076 7.4831733330421475,46.98426197818138,547.3205119121076 7.4831733330421475,46.970343943675864,547.3205119121076</coordinates>
                    </LinearRing>
                  </outerBoundaryIs>
                </Polygon>
                <Polygon>
                  <altitudeMode>absolute</altitudeMode>
                  <outerBoundaryIs>
                    <LinearRing>
                      <coordinates>7.463533166836405,46.970343943675864,632.3205119121076 7.463533166836405,46.98426197818138,632.3205119121076 7.4831733330421475,46.98426197818138,632.3205119121076 7.4831733330421475,46.970343943675864,632.3205119121076</coordinates>
                    </LinearRing>
                  </outerBoundaryIs>
                </Polygon>
                <Polygon>
                  <altitudeMode>absolute</altitudeMode>
                  <outerBoundaryIs>
                    <LinearRing>
                      <coordinates>7.463533166836405,46.970343943675864,547.3205119121076 7.463533166836405,46.970343943675864,632.3205119121076 7.463533166836405,46.98426197818138,632.3205119121076 7.463533166836405,46.98426197818138,547.3205119121076</coordinates>
                    </LinearRing>
                  </outerBoundaryIs>
                </Polygon>
                <Polygon>
                  <altitudeMode>absolute</altitudeMode>
                  <outerBoundaryIs>
                    <LinearRing>
                      <coordinates>7.463533166836405,46.98426197818138,547.3205119121076 7.463533166836405,46.98426197818138,632.3205119121076 7.4831733330421475,46.98426197818138,632.3205119121076 7.4831733330421475,46.98426197818138,547.3205119121076</coordinates>
                    </LinearRing>
                  </outerBoundaryIs>
                </Polygon>
                <Polygon>
                  <altitudeMode>absolute</altitudeMode>
                  <outerBoundaryIs>
                    <LinearRing>
                      <coordinates>7.4831733330421475,46.98426197818138,547.3205119121076 7.4831733330421475,46.98426197818138,632.3205119121076 7.4831733330421475,46.970343943675864,632.3205119121076 7.4831733330421475,46.970343943675864,547.3205119121076</coordinates>
                    </LinearRing>
                  </outerBoundaryIs>
                </Polygon>
                <Polygon>
                  <altitudeMode>absolute</altitudeMode>
                  <outerBoundaryIs>
                    <LinearRing>
                      <coordinates>7.4831733330421475,46.970343943675864,547.3205119121076 7.4831733330421475,46.970343943675864,632.3205119121076 7.463533166836405,46.970343943675864,632.3205119121076 7.463533166836405,46.970343943675864,547.3205119121076</coordinates>
                    </LinearRing>
                  </outerBoundaryIs>
                </Polygon>
              </MultiGeometry>
            </Placemark>
          </Folder>
          <Folder>
            <name>E28: uss1 astm.f3548.v21.dss.queryOperationalIntentReferences</name>
            <Placemark>
              <name>area_of_interest</name>
              <styleUrl>#QueryArea</styleUrl>
              <description><![CDATA[<ul><li>uss2's Activated ab41d5c5-b701-437c-938d-1665feb16940[2]</li></ul>]]></description>
              <TimeSpan>
                <begin>2026-08-14T04:41:44.156192+00:00</begin>
                <end>2026-08-14T05:26:44.156192+00:00</end>
              </TimeSpan>
              <MultiGeometry>
                <Polygon>
                  <altitudeMode>absolute</altitudeMode>
                  <outerBoundaryIs>
                    <LinearRing>
                      <coordinates>7.463533166836405,46.970343943675864,547.3205119121076 7.463533166836405,46.98426197818138,547.3205119121076 7.4831733330421475,46.98426197818138,547.3205119121076 7.4831733330421475,46.970343943675864,547.3205119121076</coordinates>
                    </LinearRing>
                  </outerBoundaryIs>
                </Polygon>
                <Polygon>
                  <altitudeMode>absolute</altitudeMode>
                  <outerBoundaryIs>
                    <LinearRing>
                      <coordinates>7.463533166836405,46.970343943675864,632.3205119121076 7.463533166836405,46.98426197818138,632.3205119121076 7.4831733330421475,46.98426197818138,632.3205119121076 7.4831733330421475,46.970343943675864,632.3205119121076</coordinates>
                    </LinearRing>
                  </outerBoundaryIs>
                </Polygon>
                <Polygon>
                  <altitudeMode>absolute</altitudeMode>
                  <outerBoundaryIs>
                    <LinearRing>
                      <coordinates>7.463533166836405,46.970343943675864,547.3205119121076 7.463533166836405,46.970343943675864,632.3205119121076 7.463533166836405,46.98426197818138,632.3205119121076 7.463533166836405,46.98426197818138,547.3205119121076</coordinates>
                    </LinearRing>
                  </outerBoundaryIs>
                </Polygon>
                <Polygon>
                  <altitudeMode>absolute</altitudeMode>
                  <outerBoundaryIs>
                    <LinearRing>
                      <coordinates>7.463533166836405,46.98426197818138,547.3205119121076 7.463533166836405,46.98426197818138,632.3205119121076 7.4831733330421475,46.98426197818138,632.3205119121076 7.4831733330421475,46.98426197818138,547.3205119121076</coordinates>
                    </LinearRing>
                  </outerBoundaryIs>
                </Polygon>
                <Polygon>
                  <altitudeMode>absolute</altitudeMode>
                  <outerBoundaryIs>
                    <LinearRing>
                      <coordinates>7.4831733330421475,46.98426197818138,547.3205119121076 7.4831733330421475,46.98426197818138,632.3205119121076 7.4831733330421475,46.970343943675864,632.3205119121076 7.4831733330421475,46.970343943675864,547.3205119121076</coordinates>
                    </LinearRing>
                  </outerBoundaryIs>
                </Polygon>
                <Polygon>
                  <altitudeMode>absolute</altitudeMode>
                  <outerBoundaryIs>
                    <LinearRing>
                      <coordinates>7.4831733330421475,46.970343943675864,547.3205119121076 7.4831733330421475,46.970343943675864,632.3205119121076 7.463533166836405,46.970343943675864,632.3205119121076 7.463533166836405,46.970343943675864,547.3205119121076</coordinates>
                    </LinearRing>
                  </outerBoundaryIs>
                </Polygon>
              </MultiGeometry>
            </Placemark>
          </Folder>
          <Folder>
            <name>E33: uss2 astm.f3548.v21.uss.getOperationalIntentDetails</name>
            <Folder>
              <name>uss2's P0 Activated ab41d5c5-b701-437c-938d-1665feb16940[2] @ L9xuYGqBa2563mjLlAYyaZFpQSlWoH7K0TmBfTu.lBQ_</name>
              <Placemark>
                <name>Nominal volume 0</name>
                <styleUrl>#F3548v21Activated</styleUrl>
                <TimeSpan>
                  <begin>2026-08-14T04:41:45.376924+00:00</begin>
                  <end>2026-08-14T05:26:44.156192+00:00</end>
                </TimeSpan>
                <MultiGeometry>
                  <Polygon>
                    <altitudeMode>absolute</altitudeMode>
                    <outerBoundaryIs>
                      <LinearRing>
                        <coordinates>7.478052924481844,46.974680496312935,547.3250717159872 7.466430182503708,46.98231255980812,547.3250717159872 7.473507572386495,46.98426197818138,547.3250717159872 7.47725831308041,46.982934603517684,547.3250717159872</coordinates>
                      </LinearRing>
                    </outerBoundaryIs>
                  </Polygon>
                  <Polygon>
                    <altitudeMode>absolute</altitudeMode>
                    <outerBoundaryIs>
                      <LinearRing>
                        <coordinates>7.478052924481844,46.974680496312935,632.3250717159872 7.466430182503708,46.98231255980812,632.3250717159872 7.473507572386495,46.98426197818138,632.3250717159872 7.47725831308041,46.982934603517684,632.3250717159872</coordinates>
                      </LinearRing>
                    </outerBoundaryIs>
                  </Polygon>
                  <Polygon>
                    <altitudeMode>absolute</altitudeMode>
                    <outerBoundaryIs>
                      <LinearRing>
                        <coordinates>7.478052924481844,46.974680496312935,547.3250717159872 7.478052924481844,46.974680496312935,632.3250717159872 7.466430182503708,46.98231255980812,632.3250717159872 7.466430182503708,46.98231255980812,547.3250717159872</coordinates>
                      </LinearRing>
                    </outerBoundaryIs>
                  </Polygon>
                  <Polygon>
                    <altitudeMode>absolute</altitudeMode>
                    <outerBoundaryIs>
                      <LinearRing>
                        <coordinates>7.466430182503708,46.98231255980812,547.3250717159872 7.466430182503708,46.98231255980812,632.3250717159872 7.473507572386495,46.98426197818138,632.3250717159872 7.473507572386495,46.98426197818138,547.3250717159872</coordinates>
                      </LinearRing>
                    </outerBoundaryIs>
                  </Polygon>
                  <Polygon>
                    <altitudeMode>absolute</altitudeMode>
                    <outerBoundaryIs>
                      <LinearRing>
                        <coordinates>7.473507572386495,46.98426197818138,547.3250717159872 7.473507572386495,46.98426197818138,632.3250717159872 7.47725831308041,46.982934603517684,632.3250717159872 7.47725831308041,46.982934603517684,547.3250717159872</coordinates>
                      </LinearRing>
                    </outerBoundaryIs>
                  </Polygon>
                  <Polygon>
                    <altitudeMode>absolute</altitudeMode>
                    <outerBoundaryIs>
                      <LinearRing>
                        <coordinates>7.47725831308041,46.982934603517684,547.3250717159872 7.47725831308041,46.982934603517684,632.3250717159872 7.478052924481844,46.974680496312935,632.3250717159872 7.478052924481844,46.974680496312935,547.3250717159872</coordinates>
                      </LinearRing>
                    </outerBoundaryIs>
                  </Polygon>
                </MultiGeometry>
              </Placemark>
            </Folder>
          </Folder>
        </Folder>
        <Folder>
          <name>Mock_uss plans Flight 2</name>
          <Folder>
            <name>E44: uss1 astm.f3548.v21.dss.queryOperationalIntentReferences</name>
            <Placemark>
              <name>area_of_interest</name>
              <styleUrl>#QueryArea</styleUrl>
              <description><![CDATA[<ul><li>uss2's Activated ab41d5c5-b701-437c-938d-1665feb16940[2]</li></ul>]]></description>
              <TimeSpan>
                <begin>2026-08-14T04:41:44.156192+00:00</begin>
                <end>2026-08-14T05:26:44.156192+00:00</end>
              </TimeSpan>
              <MultiGeometry>
                <Polygon>
                  <altitudeMode>absolute</altitudeMode>
                  <outerBoundaryIs>
                    <LinearRing>
                      <coordinates>7.463533166836405,46.970343943675864,547.3205119121076 7.463533166836405,46.98426197818138,547.3205119121076 7.4831733330421475,46.98426197818138,547.3205119121076 7.4831733330421475,46.970343943675864,547.3205119121076</coordinates>
                    </LinearRing>
                  </outerBoundaryIs>
                </Polygon>
                <Polygon>
                  <altitudeMode>absolute</altitudeMode>
                  <outerBoundaryIs>
                    <LinearRing>
                      <coordinates>7.463533166836405,46.970343943675864,632.3205119121076 7.463533166836405,46.98426197818138,632.3205119121076 7.4831733330421475,46.98426197818138,632.3205119121076 7.4831733330421475,46.970343943675864,632.3205119121076</coordinates>
                    </LinearRing>
                  </outerBoundaryIs>
                </Polygon>
                <Polygon>
                  <altitudeMode>absolute</altitudeMode>
                  <outerBoundaryIs>
                    <LinearRing>
                      <coordinates>7.463533166836405,46.970343943675864,547.3205119121076 7.463533166836405,46.970343943675864,632.3205119121076 7.463533166836405,46.98426197818138,632.3205119121076 7.463533166836405,46.98426197818138,547.3205119121076</coordinates>
                    </LinearRing>
                  </outerBoundaryIs>
                </Polygon>
                <Polygon>
                  <altitudeMode>absolute</altitudeMode>
                  <outerBoundaryIs>
                    <LinearRing>
                      <coordinates>7.463533166836405,46.98426197818138,547.3205119121076 7.463533166836405,46.98426197818138,632.3205119121076 7.4831733330421475,46.98426197818138,632.3205119121076 7.4831733330421475,46.98426197818138,547.3205119121076</coordinates>
                    </LinearRing>
                  </outerBoundaryIs>
                </Polygon>
                <Polygon>
                  <altitudeMode>absolute</altitudeMode>
                  <outerBoundaryIs>
                    <LinearRing>
                      <coordinates>7.4831733330421475,46.98426197818138,547.3205119121076 7.4831733330421475,46.98426197818138,632.3205119121076 7.4831733330421475,46.970343943675864,632.3205119121076 7.4831733330421475,46.970343943675864,547.3205119121076</coordinates>
                    </LinearRing>
                  </outerBoundaryIs>
                </Polygon>
                <Polygon>
                  <altitudeMode>absolute</altitudeMode>
                  <outerBoundaryIs>
                    <LinearRing>
                      <coordinates>7.4831733330421475,46.970343943675864,547.3205119121076 7.4831733330421475,46.970343943675864,632.3205119121076 7.463533166836405,46.970343943675864,632.3205119121076 7.463533166836405,46.970343943675864,547.3205119121076</coordinates>
                    </LinearRing>
                  </outerBoundaryIs>
                </Polygon>
              </MultiGeometry>
            </Placemark>
          </Folder>
          <Folder>
            <name>E46: mock_uss interuss.automated_testing.flight_planning.v1.UpsertFlightPlan</name>
            <Folder>
              <name>Activity Completed, flight Planned</name>
              <Placemark>
                <name>Volume 0</name>
                <styleUrl>#Planned_Nominal</styleUrl>
                <TimeSpan>
                  <begin>2026-08-14T04:41:44.156192+00:00</begin>
                  <end>2026-08-14T05:26:44.156192+00:00</end>
                </TimeSpan>
                <MultiGeometry>
                  <Polygon>
                    <altitudeMode>absolute</altitudeMode>
                    <outerBoundaryIs>
                      <LinearRing>
                        <coordinates>7.477742699801274,46.98240498341731,556.3240111113198 7.4831733330421475,46.9804512956464,556.3240111113198 7.478557438327946,46.970343943675864,556.3240111113198 7.463533166836405,46.98278523575232,556.3240111113198 7.478222333322472,46.97442351656846,556.3240111113198</coordinates>
                      </LinearRing>
                    </outerBoundaryIs>
                  </Polygon>
                  <Polygon>
                    <altitudeMode>absolute</altitudeMode>
                    <outerBoundaryIs>
                      <LinearRing>
                        <coordinates>7.477742699801274,46.98240498341731,614.3240111113198 7.4831733330421475,46.9804512956464,614.3240111113198 7.478557438327946,46.970343943675864,614.3240111113198 7.463533166836405,46.98278523575232,614.3240111113198 7.478222333322472,46.97442351656846,614.3240111113198</coordinates>
                      </LinearRing>
                    </outerBoundaryIs>
                  </Polygon>
                  <Polygon>
                    <altitudeMode>absolute</altitudeMode>
                    <outerBoundaryIs>
                      <LinearRing>
                        <coordinates>7.477742699801274,46.98240498341731,556.3240111113198 7.477742699801274,46.98240498341731,614.3240111113198 7.4831733330421475,46.9804512956464,614.3240111113198 7.4831733330421475,46.9804512956464,556.3240111113198</coordinates>
                      </LinearRing>
                    </outerBoundaryIs>
                  </Polygon>
                  <Polygon>
                    <altitudeMode>absolute</altitudeMode>
                    <outerBoundaryIs>
                      <LinearRing>
                        <coordinates>7.4831733330421475,46.9804512956464,556.3240111113198 7.4831733330421475,46.9804512956464,614.3240111113198 7.478557438327946,46.970343943675864,614.3240111113198 7.478557438327946,46.970343943675864,556.3240111113198</coordinates>
                      </LinearRing>
                    </outerBoundaryIs>
                  </Polygon>
                  <Polygon>
                    <altitudeMode>absolute</altitudeMode>
                    <outerBoundaryIs>
                      <LinearRing>
                        <coordinates>7.478557438327946,46.970343943675864,556.3240111113198 7.478557438327946,46.970343943675864,614.3240111113198 7.463533166836405,46.98278523575232,614.3240111113198 7.463533166836405,46.98278523575232,556.3240111113198</coordinates>
                      </LinearRing>
                    </outerBoundaryIs>
                  </Polygon>
                  <Polygon>
                    <altitudeMode>absolute</altitudeMode>
                    <outerBoundaryIs>
                      <LinearRing>
                        <coordinates>7.463533166836405,46.98278523575232,556.3240111113198 7.463533166836405,46.98278523575232,614.3240111113198 7.478222333322472,46.97442351656846,614.3240111113198 7.478222333322472,46.97442351656846,556.3240111113198</coordinates>
                      </LinearRing>
                    </outerBoundaryIs>
                  </Polygon>
                  <Polygon>
                    <altitudeMode>absolute</altitudeMode>
                    <outerBoundaryIs>
                      <LinearRing>
                        <coordinates>7.478222333322472,46.97442351656846,556.3240111113198 7.478222333322472,46.97442351656846,614.3240111113198 7.477742699801274,46.98240498341731,614.3240111113198 7.477742699801274,46.98240498341731,556.3240111113198</coordinates>
                      </LinearRing>
                    </outerBoundaryIs>
                  </Polygon>
                </MultiGeometry>
              </Placemark>
            </Folder>
          </Folder>
          <Folder>
            <name>E50: uss1 astm.f3548.v21.dss.queryOperationalIntentReferences</name>
            <Placemark>
              <name>area_of_interest</name>
              <styleUrl>#QueryArea</styleUrl>
              <description><![CDATA[<ul><li>uss6's Accepted 261bf7d7-17ff-4e59-b041-ea55001c5eba[1]</li><li>uss2's Activated ab41d5c5-b701-437c-938d-1665feb16940[2]</li></ul>]]></description>
              <TimeSpan>
                <begin>2026-08-14T04:41:44.156192+00:00</begin>
                <end>2026-08-14T05:26:44.156192+00:00</end>
              </TimeSpan>
              <MultiGeometry>
                <Polygon>
                  <altitudeMode>absolute</altitudeMode>
                  <outerBoundaryIs>
                    <LinearRing>
                      <coordinates>7.463533166836405,46.970343943675864,547.3205119121076 7.463533166836405,46.98426197818138,547.3205119121076 7.4831733330421475,46.98426197818138,547.3205119121076 7.4831733330421475,46.970343943675864,547.3205119121076</coordinates>
                    </LinearRing>
                  </outerBoundaryIs>
                </Polygon>
                <Polygon>
                  <altitudeMode>absolute</altitudeMode>
                  <outerBoundaryIs>
                    <LinearRing>
                      <coordinates>7.463533166836405,46.970343943675864,632.3205119121076 7.463533166836405,46.98426197818138,632.3205119121076 7.4831733330421475,46.98426197818138,632.3205119121076 7.4831733330421475,46.970343943675864,632.3205119121076</coordinates>
                    </LinearRing>
                  </outerBoundaryIs>
                </Polygon>
                <Polygon>
                  <altitudeMode>absolute</altitudeMode>
                  <outerBoundaryIs>
                    <LinearRing>
                      <coordinates>7.463533166836405,46.970343943675864,547.3205119121076 7.463533166836405,46.970343943675864,632.3205119121076 7.463533166836405,46.98426197818138,632.3205119121076 7.463533166836405,46.98426197818138,547.3205119121076</coordinates>
                    </LinearRing>
                  </outerBoundaryIs>
                </Polygon>
                <Polygon>
                  <altitudeMode>absolute</altitudeMode>
                  <outerBoundaryIs>
                    <LinearRing>
                      <coordinates>7.463533166836405,46.98426197818138,547.3205119121076 7.463533166836405,46.98426197818138,632.3205119121076 7.4831733330421475,46.98426197818138,632.3205119121076 7.4831733330421475,46.98426197818138,547.3205119121076</coordinates>
                    </LinearRing>
                  </outerBoundaryIs>
                </Polygon>
                <Polygon>
                  <altitudeMode>absolute</altitudeMode>
                  <outerBoundaryIs>
                    <LinearRing>
                      <coordinates>7.4831733330421475,46.98426197818138,547.3205119121076 7.4831733330421475,46.98426197818138,632.3205119121076 7.4831733330421475,46.970343943675864,632.3205119121076 7.4831733330421475,46.970343943675864,547.3205119121076</coordinates>
                    </LinearRing>
                  </outerBoundaryIs>
                </Polygon>
                <Polygon>
                  <altitudeMode>absolute</altitudeMode>
                  <outerBoundaryIs>
                    <LinearRing>
                      <coordinates>7.4831733330421475,46.970343943675864,547.3205119121076 7.4831733330421475,46.970343943675864,632.3205119121076 7.463533166836405,46.970343943675864,632.3205119121076 7.463533166836405,46.970343943675864,547.3205119121076</coordinates>
                    </LinearRing>
                  </outerBoundaryIs>
                </Polygon>
              </MultiGeometry>
            </Placemark>
          </Folder>
          <Folder>
            <name>E54: mock_uss astm.f3548.v21.uss.getOperationalIntentDetails</name>
            <Folder>
              <name>uss6's P0 Accepted 261bf7d7-17ff-4e59-b041-ea55001c5eba[1] @ keWKv-qs1dMPEEKQEl4Uy860fCAoJqzQP2ieonOF.-A_</name>
              <Placemark>
                <name>Nominal volume 0</name>
                <styleUrl>#F3548v21Accepted</styleUrl>
                <TimeSpan>
                  <begin>2026-08-14T04:41:45.607746+00:00</begin>
                  <end>2026-08-14T05:26:44.156192+00:00</end>
                </TimeSpan>
                <MultiGeometry>
                  <Polygon>
                    <altitudeMode>absolute</altitudeMode>
                    <outerBoundaryIs>
                      <LinearRing>
                        <coordinates>7.477742699801274,46.98240498341731,556.3240111113198 7.4831733330421475,46.9804512956464,556.3240111113198 7.478557438327946,46.970343943675864,556.3240111113198 7.463533166836405,46.98278523575232,556.3240111113198 7.478222333322472,46.97442351656846,556.3240111113198</coordinates>
                      </LinearRing>
                    </outerBoundaryIs>
                  </Polygon>
                  <Polygon>
                    <altitudeMode>absolute</altitudeMode>
                    <outerBoundaryIs>
                      <LinearRing>
                        <coordinates>7.477742699801274,46.98240498341731,614.3240111113198 7.4831733330421475,46.9804512956464,614.3240111113198 7.478557438327946,46.970343943675864,614.3240111113198 7.463533166836405,46.98278523575232,614.3240111113198 7.478222333322472,46.97442351656846,614.3240111113198</coordinates>
                      </LinearRing>
                    </outerBoundaryIs>
                  </Polygon>
                  <Polygon>
                    <altitudeMode>absolute</altitudeMode>
                    <outerBoundaryIs>
                      <LinearRing>
                        <coordinates>7.477742699801274,46.98240498341731,556.3240111113198 7.477742699801274,46.98240498341731,614.3240111113198 7.4831733330421475,46.9804512956464,614.3240111113198 7.4831733330421475,46.9804512956464,556.3240111113198</coordinates>
                      </LinearRing>
                    </outerBoundaryIs>
                  </Polygon>
                  <Polygon>
                    <altitudeMode>absolute</altitudeMode>
                    <outerBoundaryIs>
                      <LinearRing>
                        <coordinates>7.4831733330421475,46.9804512956464,556.3240111113198 7.4831733330421475,46.9804512956464,614.3240111113198 7.478557438327946,46.970343943675864,614.3240111113198 7.478557438327946,46.970343943675864,556.3240111113198</coordinates>
                      </LinearRing>
                    </outerBoundaryIs>
                  </Polygon>
                  <Polygon>
                    <altitudeMode>absolute</altitudeMode>
                    <outerBoundaryIs>
                      <LinearRing>
                        <coordinates>7.478557438327946,46.970343943675864,556.3240111113198 7.478557438327946,46.970343943675864,614.3240111113198 7.463533166836405,46.98278523575232,614.3240111113198 7.463533166836405,46.98278523575232,556.3240111113198</coordinates>
                      </LinearRing>
                    </outerBoundaryIs>
                  </Polygon>
                  <Polygon>
                    <altitudeMode>absolute</altitudeMode>
                    <outerBoundaryIs>
                      <LinearRing>
                        <coordinates>7.463533166836405,46.98278523575232,556.3240111113198 7.463533166836405,46.98278523575232,614.3240111113198 7.478222333322472,46.97442351656846,614.3240111113198 7.478222333322472,46.97442351656846,556.3240111113198</coordinates>
                      </LinearRing>
                    </outerBoundaryIs>
                  </Polygon>
                  <Polygon>
                    <altitudeMode>absolute</altitudeMode>
                    <outerBoundaryIs>
                      <LinearRing>
                        <coordinates>7.478222333322472,46.97442351656846,556.3240111113198 7.478222333322472,46.97442351656846,614.3240111113198 7.477742699801274,46.98240498341731,614.3240111113198 7.477742699801274,46.98240498341731,556.3240111113198</coordinates>
                      </LinearRing>
                    </outerBoundaryIs>
                  </Polygon>
                </MultiGeometry>
              </Placemark>
            </Folder>
          </Folder>
        </Folder>
        <Folder>
          <name>Validate Flight 2 notification received by tested_uss</name>
        </Folder>
      </Folder>
      <Folder>
        <name>Modify Activated operational intent area and receive notification of relevant intent</name>
        <Folder>
          <name>Mock_uss modifies planned Flight 2</name>
          <Folder>
            <name>E69: uss1 astm.f3548.v21.dss.queryOperationalIntentReferences</name>
            <Placemark>
              <name>area_of_interest</name>
              <styleUrl>#QueryArea</styleUrl>
              <description><![CDATA[<ul><li>uss6's Accepted 261bf7d7-17ff-4e59-b041-ea55001c5eba[1]</li><li>uss2's Activated ab41d5c5-b701-437c-938d-1665feb16940[2]</li></ul>]]></description>
              <TimeSpan>
                <begin>2026-08-14T04:41:44.759989+00:00</begin>
                <end>2026-08-14T05:26:44.759989+00:00</end>
              </TimeSpan>
              <MultiGeometry>
                <Polygon>
                  <altitudeMode>absolute</altitudeMode>
                  <outerBoundaryIs>
                    <LinearRing>
                      <coordinates>7.463533166836405,46.970343943675864,556.3196835685477 7.463533166836405,46.98278523575232,556.3196835685477 7.4831733330421475,46.98278523575232,556.3196835685477 7.4831733330421475,46.970343943675864,556.3196835685477</coordinates>
                    </LinearRing>
                  </outerBoundaryIs>
                </Polygon>
                <Polygon>
                  <altitudeMode>absolute</altitudeMode>
                  <outerBoundaryIs>
                    <LinearRing>
                      <coordinates>7.463533166836405,46.970343943675864,621.3196835685477 7.463533166836405,46.98278523575232,621.3196835685477 7.4831733330421475,46.98278523575232,621.3196835685477 7.4831733330421475,46.970343943675864,621.3196835685477</coordinates>
                    </LinearRing>
                  </outerBoundaryIs>
                </Polygon>
                <Polygon>
                  <altitudeMode>absolute</altitudeMode>
                  <outerBoundaryIs>
                    <LinearRing>
                      <coordinates>7.463533166836405,46.970343943675864,556.3196835685477 7.463533166836405,46.970343943675864,621.3196835685477 7.463533166836405,46.98278523575232,621.3196835685477 7.463533166836405,46.98278523575232,556.3196835685477</coordinates>
                    </LinearRing>
                  </outerBoundaryIs>
                </Polygon>
                <Polygon>
                  <altitudeMode>absolute</altitudeMode>
                  <outerBoundaryIs>
                    <LinearRing>
                      <coordinates>7.463533166836405,46.98278523575232,556.3196835685477 7.463533166836405,46.98278523575232,621.3196835685477 7.4831733330421475,46.98278523575232,621.3196835685477 7.4831733330421475,46.98278523575232,556.3196835685477</coordinates>
                    </LinearRing>
                  </outerBoundaryIs>
                </Polygon>
                <Polygon>
                  <altitudeMode>absolute</altitudeMode>
                  <outerBoundaryIs>
                    <LinearRing>
                      <coordinates>7.4831733330421475,46.98278523575232,556.3196835685477 7.4831733330421475,46.98278523575232,621.3196835685477 7.4831733330421475,46.970343943675864,621.3196835685477 7.4831733330421475,46.970343943675864,556.3196835685477</coordinates>
                    </LinearRing>
                  </outerBoundaryIs>
                </Polygon>
                <Polygon>
                  <altitudeMode>absolute</altitudeMode>
                  <outerBoundaryIs>
                    <LinearRing>
                      <coordinates>7.4831733330421475,46.970343943675864,556.3196835685477 7.4831733330421475,46.970343943675864,621.3196835685477 7.463533166836405,46.970343943675864,621.3196835685477 7.463533166836405,46.970343943675864,556.3196835685477</coordinates>
                    </LinearRing>
                  </outerBoundaryIs>
                </Polygon>
              </MultiGeometry>
            </Placemark>
          </Folder>
          <Folder>
            <name>E71: mock_uss interuss.automated_testing.flight_planning.v1.UpsertFlightPlan</name>
            <Folder>
              <name>Activity Completed, flight Planned</name>
              <Placemark>
                <name>Volume 0</name>
                <styleUrl>#Planned_Nominal</styleUrl>
                <TimeSpan>
                  <begin>2026-08-14T04:41:44.759989+00:00</begin>
                  <end>2026-08-14T05:26:44.759989+00:00</end>
                </TimeSpan>
                <MultiGeometry>
                  <Polygon>
                    <altitudeMode>absolute</altitudeMode>
                    <outerBoundaryIs>
                      <LinearRing>
                        <coordinates>7.477742699801274,46.98240498341731,556.3240111113198 7.4831733330421475,46.9804512956464,556.3240111113198 7.478557438327946,46.970343943675864,556.3240111113198 7.463533166836405,46.98278523575232,556.3240111113198 7.478222333322472,46.97442351656846,556.3240111113198</coordinates>
                      </LinearRing>
                    </outerBoundaryIs>
                  </Polygon>
                  <Polygon>
                    <altitudeMode>absolute</altitudeMode>
                    <outerBoundaryIs>
                      <LinearRing>
                        <coordinates>7.477742699801274,46.98240498341731,621.3240111113198 7.4831733330421475,46.9804512956464,621.3240111113198 7.478557438327946,46.970343943675864,621.3240111113198 7.463533166836405,46.98278523575232,621.3240111113198 7.478222333322472,46.97442351656846,621.3240111113198</coordinates>
                      </LinearRing>
                    </outerBoundaryIs>
                  </Polygon>
                  <Polygon>
                    <altitudeMode>absolute</altitudeMode>
                    <outerBoundaryIs>
                      <LinearRing>
                        <coordinates>7.477742699801274,46.98240498341731,556.3240111113198 7.477742699801274,46.98240498341731,621.3240111113198 7.4831733330421475,46.9804512956464,621.3240111113198 7.4831733330421475,46.9804512956464,556.3240111113198</coordinates>
                      </LinearRing>
                    </outerBoundaryIs>
                  </Polygon>
                  <Polygon>
                    <altitudeMode>absolute</altitudeMode>
                    <outerBoundaryIs>
                      <LinearRing>
                        <coordinates>7.4831733330421475,46.9804512956464,556.3240111113198 7.4831733330421475,46.9804512956464,621.3240111113198 7.478557438327946,46.970343943675864,621.3240111113198 7.478557438327946,46.970343943675864,556.3240111113198</coordinates>
                      </LinearRing>
                    </outerBoundaryIs>
                  </Polygon>
                  <Polygon>
                    <altitudeMode>absolute</altitudeMode>
                    <outerBoundaryIs>
                      <LinearRing>
                        <coordinates>7.478557438327946,46.970343943675864,556.3240111113198 7.478557438327946,46.970343943675864,621.3240111113198 7.463533166836405,46.98278523575232,621.3240111113198 7.463533166836405,46.98278523575232,556.3240111113198</coordinates>
                      </LinearRing>
                    </outerBoundaryIs>
                  </Polygon>
                  <Polygon>
                    <altitudeMode>absolute</altitudeMode>
                    <outerBoundaryIs>
                      <LinearRing>
                        <coordinates>7.463533166836405,46.98278523575232,556.3240111113198 7.463533166836405,46.98278523575232,621.3240111113198 7.478222333322472,46.97442351656846,621.3240111113198 7.478222333322472,46.97442351656846,556.3240111113198</coordinates>
                      </LinearRing>
                    </outerBoundaryIs>
                  </Polygon>
                  <Polygon>
                    <altitudeMode>absolute</altitudeMode>
                    <outerBoundaryIs>
                      <LinearRing>
                        <coordinates>7.478222333322472,46.97442351656846,556.3240111113198 7.478222333322472,46.97442351656846,621.3240111113198 7.477742699801274,46.98240498341731,621.3240111113198 7.477742699801274,46.98240498341731,556.3240111113198</coordinates>
                      </LinearRing>
                    </outerBoundaryIs>
                  </Polygon>
                </MultiGeometry>
              </Placemark>
            </Folder>
          </Folder>
          <Folder>
            <name>E75: uss1 astm.f3548.v21.dss.queryOperationalIntentReferences</name>
            <Placemark>
              <name>area_of_interest</name>
              <styleUrl>#QueryArea</styleUrl>
              <description><![CDATA[<ul><li>uss6's Accepted 261bf7d7-17ff-4e59-b041-ea55001c5eba[2]</li><li>uss2's Activated ab41d5c5-b701-437c-938d-1665feb16940[2]</li></ul>]]></description>
              <TimeSpan>
                <begin>2026-08-14T04:41:44.759989+00:00</begin>
                <end>2026-08-14T05:26:44.759989+00:00</end>
              </TimeSpan>
              <MultiGeometry>
                <Polygon>
                  <altitudeMode>absolute</altitudeMode>
                  <outerBoundaryIs>
                    <LinearRing>
                      <coordinates>7.463533166836405,46.970343943675864,556.3196835685477 7.463533166836405,46.98278523575232,556.3196835685477 7.4831733330421475,46.98278523575232,556.3196835685477 7.4831733330421475,46.970343943675864,556.3196835685477</coordinates>
                    </LinearRing>
                  </outerBoundaryIs>
                </Polygon>
                <Polygon>
                  <altitudeMode>absolute</altitudeMode>
                  <outerBoundaryIs>
                    <LinearRing>
                      <coordinates>7.463533166836405,46.970343943675864,621.3196835685477 7.463533166836405,46.98278523575232,621.3196835685477 7.4831733330421475,46.98278523575232,621.3196835685477 7.4831733330421475,46.970343943675864,621.3196835685477</coordinates>
                    </LinearRing>
                  </outerBoundaryIs>
                </Polygon>
                <Polygon>
                  <altitudeMode>absolute</altitudeMode>
                  <outerBoundaryIs>
                    <LinearRing>
                      <coordinates>7.463533166836405,46.970343943675864,556.3196835685477 7.463533166836405,46.970343943675864,621.3196835685477 7.463533166836405,46.98278523575232,621.3196835685477 7.463533166836405,46.98278523575232,556.3196835685477</coordinates>
                    </LinearRing>
                  </outerBoundaryIs>
                </Polygon>
                <Polygon>
                  <altitudeMode>absolute</altitudeMode>
                  <outerBoundaryIs>
                    <LinearRing>
                      <coordinates>7.463533166836405,46.98278523575232,556.3196835685477 7.463533166836405,46.98278523575232,621.3196835685477 7.4831733330421475,46.98278523575232,621.3196835685477 7.4831733330421475,46.98278523575232,556.3196835685477</coordinates>
                    </LinearRing>
                  </outerBoundaryIs>
                </Polygon>
                <Polygon>
                  <altitudeMode>absolute</altitudeMode>
                  <outerBoundaryIs>
                    <LinearRing>
                      <coordinates>7.4831733330421475,46.98278523575232,556.3196835685477 7.4831733330421475,46.98278523575232,621.3196835685477 7.4831733330421475,46.970343943675864,621.3196835685477 7.4831733330421475,46.970343943675864,556.3196835685477</coordinates>
                    </LinearRing>
                  </outerBoundaryIs>
                </Polygon>
                <Polygon>
                  <altitudeMode>absolute</altitudeMode>
                  <outerBoundaryIs>
                    <LinearRing>
                      <coordinates>7.4831733330421475,46.970343943675864,556.3196835685477 7.4831733330421475,46.970343943675864,621.3196835685477 7.463533166836405,46.970343943675864,621.3196835685477 7.463533166836405,46.970343943675864,556.3196835685477</coordinates>
                    </LinearRing>
                  </outerBoundaryIs>
                </Polygon>
              </MultiGeometry>
            </Placemark>
          </Folder>
          <Folder>
            <name>E79: mock_uss astm.f3548.v21.uss.getOperationalIntentDetails</name>
            <Folder>
              <name>uss6's P0 Accepted 261bf7d7-17ff-4e59-b041-ea55001c5eba[2] @ hj3bWTt2myZ-6nNJd-3tfrjrs2aLX7LIQytD3Tjj7nA_</name>
              <Placemark>
                <name>Nominal volume 0</name>
                <styleUrl>#F3548v21Accepted</styleUrl>
                <TimeSpan>
                  <begin>2026-08-14T04:41:45.792336+00:00</begin>
                  <end>2026-08-14T05:26:44.759989+00:00</end>
                </TimeSpan>
                <MultiGeometry>
                  <Polygon>
                    <altitudeMode>absolute</altitudeMode>
                    <outerBoundaryIs>
                      <LinearRing>
                        <coordinates>7.477742699801274,46.98240498341731,556.3240111113198 7.4831733330421475,46.9804512956464,556.3240111113198 7.478557438327946,46.970343943675864,556.3240111113198 7.463533166836405,46.98278523575232,556.3240111113198 7.478222333322472,46.97442351656846,556.3240111113198</coordinates>
                      </LinearRing>
                    </outerBoundaryIs>
                  </Polygon>
                  <Polygon>
                    <altitudeMode>absolute</altitudeMode>
                    <outerBoundaryIs>
                      <LinearRing>
                        <coordinates>7.477742699801274,46.98240498341731,621.3240111113198 7.4831733330421475,46.9804512956464,621.3240111113198 7.478557438327946,46.970343943675864,621.3240111113198 7.463533166836405,46.98278523575232,621.3240111113198 7.478222333322472,46.97442351656846,621.3240111113198</coordinates>
                      </LinearRing>
                    </outerBoundaryIs>
                  </Polygon>
                  <Polygon>
                    <altitudeMode>absolute</altitudeMode>
                    <outerBoundaryIs>
                      <LinearRing>
                        <coordinates>7.477742699801274,46.98240498341731,556.3240111113198 7.477742699801274,46.98240498341731,621.3240111113198 7.4831733330421475,46.9804512956464,621.3240111113198 7.4831733330421475,46.9804512956464,556.3240111113198</coordinates>
                      </LinearRing>
                    </outerBoundaryIs>
                  </Polygon>
                  <Polygon>
                    <altitudeMode>absolute</altitudeMode>
                    <outerBoundaryIs>
                      <LinearRing>
                        <coordinates>7.4831733330421475,46.9804512956464,556.3240111113198 7.4831733330421475,46.9804512956464,621.3240111113198 7.478557438327946,46.970343943675864,621.3240111113198 7.478557438327946,46.970343943675864,556.3240111113198</coordinates>
                      </LinearRing>
                    </outerBoundaryIs>
                  </Polygon>
                  <Polygon>
                    <altitudeMode>absolute</altitudeMode>
                    <outerBoundaryIs>
                      <LinearRing>
                        <coordinates>7.478557438327946,46.970343943675864,556.3240111113198 7.478557438327946,46.970343943675864,621.3240111113198 7.463533166836405,46.98278523575232,621.3240111113198 7.463533166836405,46.98278523575232,556.3240111113198</coordinates>
                      </LinearRing>
                    </outerBoundaryIs>
                  </Polygon>
                  <Polygon>
                    <altitudeMode>absolute</altitudeMode>
                    <outerBoundaryIs>
                      <LinearRing>
                        <coordinates>7.463533166836405,46.98278523575232,556.3240111113198 7.463533166836405,46.98278523575232,621.3240111113198 7.478222333322472,46.97442351656846,621.3240111113198 7.478222333322472,46.97442351656846,556.3240111113198</coordinates>
                      </LinearRing>
                    </outerBoundaryIs>
                  </Polygon>
                  <Polygon>
                    <altitudeMode>absolute</altitudeMode>
                    <outerBoundaryIs>
                      <LinearRing>
                        <coordinates>7.478222333322472,46.97442351656846,556.3240111113198 7.478222333322472,46.97442351656846,621.3240111113198 7.477742699801274,46.98240498341731,621.3240111113198 7.477742699801274,46.98240498341731,556.3240111113198</coordinates>
                      </LinearRing>
                    </outerBoundaryIs>
                  </Polygon>
                </MultiGeometry>
              </Placemark>
            </Folder>
          </Folder>
        </Folder>
        <Folder>
          <name>Validate Flight 2 notification received by tested_uss</name>
        </Folder>
      </Folder>
      <Folder>
        <name/>
        <Folder>
          <name>Cleanup</name>
        </Folder>
      </Folder>
    </Folder>
  </Document>
</kml>
